EUTELSAT 7A             
1 28187U 04008A   25262.55355823  .00000089  00000+0  00000+0 0  9996
2 28187   5.1391  75.2273 0000871 122.2906 221.2582  1.00272335 78630
EUTELSAT 174A           
1 28924U 05052A   25262.48308668 -.00000006  00000+0  00000+0 0  9992
2 28924   3.5292  79.8793 0006137 102.6429 164.0440  1.00274073 49615
EUTELSAT HOTBIRD 13B    
1 29270U 06032A   25262.58770505  .00000138  00000+0  00000+0 0  9995
2 29270   0.9579  85.2090 0004079  87.9431  70.2510  1.00270016 44592
EUTELSAT HOTBIRD 13C    
1 33459U 08065A   25262.36453740 -.00000117  00000+0  00000+0 0  9990
2 33459   2.2496  82.3980 0004749 121.4487 273.4122  1.00271866 44639
EUTELSAT 36B            
1 36101U 09065A   25262.59117172  .00000000  00000+0  00000+0 0  9999
2 36101   0.0241  33.7356 0005770 151.8831  76.4220  1.00271322 57992
EUTELSAT KA-SAT 9A      
1 37258U 10069A   25262.29745711  .00000043  00000+0  00000+0 0  9999
2 37258   0.0551 328.9596 0002931 173.6496 331.9419  1.00270525 41299
EUTELSAT 7 WEST A       
1 37816U 11051A   25262.57964501 -.00000078  00000+0  00000+0 0  9991
2 37816   0.0733  20.5061 0005981 165.8465  13.7260  1.00272182 51178
EUTELSAT 16A            
1 37836U 11057A   25262.58432503  .00000086  00000+0  00000+0 0  9990
2 37836   0.0691  15.3053 0005428 160.8733  48.9357  1.00270330  4612
